[{"OBJECT_NAME":"STARLINK-37026","OBJECT_ID":"2026-042G","EPOCH":"2026-03-10T06:00:02.000160","MEAN_MOTION":16.00306996,"ECCENTRICITY":6.963e-5,"INCLINATION":53.1599,"RA_OF_ASC_NODE":192.4209,"ARG_OF_PERICENTER":87.8235,"MEAN_ANOMALY":326.5244,"EPHEMERIS_TYPE":0,"CLASSIFICATION_TYPE":"U","NORAD_CAT_ID":68075,"ELEMENT_SET_NO":999,"REV_AT_EPOCH":214,"BSTAR":-0.0023831225,"MEAN_MOTION_DOT":-0.01271968,"MEAN_MOTION_DDOT":0.0005156988},{"OBJECT_NAME":"STARLINK-37023","OBJECT_ID":"2026-042H","EPOCH":"2026-03-10T06:00:02.000160","MEAN_MOTION":16.00429682,"ECCENTRICITY":6.89e-5,"INCLINATION":53.1598,"RA_OF_ASC_NODE":192.4177,"ARG_OF_PERICENTER":85.2003,"MEAN_ANOMALY":330.7344,"EPHEMERIS_TYPE":0,"CLASSIFICATION_TYPE":"U","NORAD_CAT_ID":68076,"ELEMENT_SET_NO":999,"REV_AT_EPOCH":214,"BSTAR":-0.0023612739,"MEAN_MOTION_DOT":-0.01269258,"MEAN_MOTION_DDOT":0.00051438331},{"OBJECT_NAME":"STARLINK-37036","OBJECT_ID":"2026-042J","EPOCH":"2026-03-10T06:00:02.000160","MEAN_MOTION":16.00534483,"ECCENTRICITY":7.669e-5,"INCLINATION":53.16,"RA_OF_ASC_NODE":192.4148,"ARG_OF_PERICENTER":80.002,"MEAN_ANOMALY":337.3234,"EPHEMERIS_TYPE":0,"CLASSIFICATION_TYPE":"U","NORAD_CAT_ID":68077,"ELEMENT_SET_NO":999,"REV_AT_EPOCH":214,"BSTAR":-0.0023306643,"MEAN_MOTION_DOT":-0.01260501,"MEAN_MOTION_DDOT":0.00050851822},{"OBJECT_NAME":"STARLINK-36973","OBJECT_ID":"2026-042K","EPOCH":"2026-03-10T06:00:02.000160","MEAN_MOTION":16.00771975,"ECCENTRICITY":7.046e-5,"INCLINATION":53.1601,"RA_OF_ASC_NODE":192.4085,"ARG_OF_PERICENTER":77.2472,"MEAN_ANOMALY":343.1017,"EPHEMERIS_TYPE":0,"CLASSIFICATION_TYPE":"U","NORAD_CAT_ID":68078,"ELEMENT_SET_NO":999,"REV_AT_EPOCH":214,"BSTAR":-0.0023043384,"MEAN_MOTION_DOT":-0.0126341,"MEAN_MOTION_DDOT":0.00051197997},{"OBJECT_NAME":"STARLINK-37063","OBJECT_ID":"2026-042L","EPOCH":"2026-03-10T06:00:02.000160","MEAN_MOTION":16.00643004,"ECCENTRICITY":6.704e-5,"INCLINATION":53.1596,"RA_OF_ASC_NODE":192.4121,"ARG_OF_PERICENTER":82.9897,"MEAN_ANOMALY":335.6794,"EPHEMERIS_TYPE":0,"CLASSIFICATION_TYPE":"U","NORAD_CAT_ID":68079,"ELEMENT_SET_NO":999,"REV_AT_EPOCH":214,"BSTAR":-0.0023183338,"MEAN_MOTION_DOT":-0.01261675,"MEAN_MOTION_DDOT":0.00050998275},{"OBJECT_NAME":"STARLINK-37051","OBJECT_ID":"2026-042M","EPOCH":"2026-03-10T06:00:02.000160","MEAN_MOTION":16.01014988,"ECCENTRICITY":6.528e-5,"INCLINATION":53.1597,"RA_OF_ASC_NODE":192.4021,"ARG_OF_PERICENTER":84.9419,"MEAN_ANOMALY":338.4745,"EPHEMERIS_TYPE":0,"CLASSIFICATION_TYPE":"U","NORAD_CAT_ID":68080,"ELEMENT_SET_NO":999,"REV_AT_EPOCH":214,"BSTAR":-0.0022695073,"MEAN_MOTION_DOT":-0.01261948,"MEAN_MOTION_DDOT":0.00051226036},{"OBJECT_NAME":"STARLINK-37066","OBJECT_ID":"2026-042N","EPOCH":"2026-03-10T06:00:02.000160","MEAN_MOTION":16.00896021,"ECCENTRICITY":7.511e-5,"INCLINATION":53.1601,"RA_OF_ASC_NODE":192.4051,"ARG_OF_PERICENTER":82.9536,"MEAN_ANOMALY":339.0091,"EPHEMERIS_TYPE":0,"CLASSIFICATION_TYPE":"U","NORAD_CAT_ID":68081,"ELEMENT_SET_NO":999,"REV_AT_EPOCH":214,"BSTAR":-0.0022878818,"MEAN_MOTION_DOT":-0.01263422,"MEAN_MOTION_DDOT":0.0005126827},{"OBJECT_NAME":"STARLINK-37054","OBJECT_ID":"2026-042P","EPOCH":"2026-03-10T06:00:02.000160","MEAN_MOTION":16.01112783,"ECCENTRICITY":6.565e-5,"INCLINATION":53.1597,"RA_OF_ASC_NODE":192.3995,"ARG_OF_PERICENTER":84.9561,"MEAN_ANOMALY":339.759,"EPHEMERIS_TYPE":0,"CLASSIFICATION_TYPE":"U","NORAD_CAT_ID":68082,"ELEMENT_SET_NO":999,"REV_AT_EPOCH":214,"BSTAR":-0.0022430051,"MEAN_MOTION_DOT":-0.01254401,"MEAN_MOTION_DDOT":0.00050723852},{"OBJECT_NAME":"STARLINK-37065","OBJECT_ID":"2026-042Q","EPOCH":"2026-03-10T06:00:02.000160","MEAN_MOTION":16.01228611,"ECCENTRICITY":6.225e-5,"INCLINATION":53.16,"RA_OF_ASC_NODE":192.3963,"ARG_OF_PERICENTER":84.5731,"MEAN_ANOMALY":341.6169,"EPHEMERIS_TYPE":0,"CLASSIFICATION_TYPE":"U","NORAD_CAT_ID":68083,"ELEMENT_SET_NO":999,"REV_AT_EPOCH":214,"BSTAR":-0.0022252892,"MEAN_MOTION_DOT":-0.01252907,"MEAN_MOTION_DDOT":0.00050678353},{"OBJECT_NAME":"STARLINK-37037","OBJECT_ID":"2026-042R","EPOCH":"2026-03-10T06:00:02.000160","MEAN_MOTION":16.01354038,"ECCENTRICITY":6.628e-5,"INCLINATION":53.1597,"RA_OF_ASC_NODE":192.3932,"ARG_OF_PERICENTER":81.433,"MEAN_ANOMALY":346.3448,"EPHEMERIS_TYPE":0,"CLASSIFICATION_TYPE":"U","NORAD_CAT_ID":68084,"ELEMENT_SET_NO":999,"REV_AT_EPOCH":214,"BSTAR":-0.0022110719,"MEAN_MOTION_DOT":-0.01254009,"MEAN_MOTION_DDOT":0.00050829525},{"OBJECT_NAME":"STARLINK-37068","OBJECT_ID":"2026-042S","EPOCH":"2026-03-10T06:00:02.000160","MEAN_MOTION":16.01439691,"ECCENTRICITY":6.984e-5,"INCLINATION":53.1596,"RA_OF_ASC_NODE":192.391,"ARG_OF_PERICENTER":83.6015,"MEAN_ANOMALY":345.2866,"EPHEMERIS_TYPE":0,"CLASSIFICATION_TYPE":"U","NORAD_CAT_ID":68085,"ELEMENT_SET_NO":999,"REV_AT_EPOCH":214,"BSTAR":-0.0021963143,"MEAN_MOTION_DOT":-0.012519,"MEAN_MOTION_DDOT":0.00050721782},{"OBJECT_NAME":"STARLINK-37067","OBJECT_ID":"2026-042T","EPOCH":"2026-03-10T06:00:02.000160","MEAN_MOTION":16.01571508,"ECCENTRICITY":6.827e-5,"INCLINATION":53.1598,"RA_OF_ASC_NODE":192.3874,"ARG_OF_PERICENTER":81.6017,"MEAN_ANOMALY":349.0187,"EPHEMERIS_TYPE":0,"CLASSIFICATION_TYPE":"U","NORAD_CAT_ID":68086,"ELEMENT_SET_NO":999,"REV_AT_EPOCH":214,"BSTAR":-0.0021747352,"MEAN_MOTION_DOT":-0.012492,"MEAN_MOTION_DDOT":0.00050596279},{"OBJECT_NAME":"STARLINK-37062","OBJECT_ID":"2026-042U","EPOCH":"2026-03-10T06:00:02.000160","MEAN_MOTION":16.01684958,"ECCENTRICITY":6.838e-5,"INCLINATION":53.1597,"RA_OF_ASC_NODE":192.3843,"ARG_OF_PERICENTER":88.8844,"MEAN_ANOMALY":343.2079,"EPHEMERIS_TYPE":0,"CLASSIFICATION_TYPE":"U","NORAD_CAT_ID":68087,"ELEMENT_SET_NO":999,"REV_AT_EPOCH":214,"BSTAR":-0.0021536316,"MEAN_MOTION_DOT":-0.01245353,"MEAN_MOTION_DDOT":0.0005037611},{"OBJECT_NAME":"STARLINK-37059","OBJECT_ID":"2026-042V","EPOCH":"2026-03-10T06:00:02.000160","MEAN_MOTION":16.01810952,"ECCENTRICITY":6.747e-5,"INCLINATION":53.1596,"RA_OF_ASC_NODE":192.3808,"ARG_OF_PERICENTER":81.2211,"MEAN_ANOMALY":352.5227,"EPHEMERIS_TYPE":0,"CLASSIFICATION_TYPE":"U","NORAD_CAT_ID":68088,"ELEMENT_SET_NO":999,"REV_AT_EPOCH":214,"BSTAR":-0.0021365899,"MEAN_MOTION_DOT":-0.0124465,"MEAN_MOTION_DDOT":0.00050394497},{"OBJECT_NAME":"STARLINK-37004","OBJECT_ID":"2026-042W","EPOCH":"2026-03-10T06:00:02.000160","MEAN_MOTION":16.01923005,"ECCENTRICITY":6.496e-5,"INCLINATION":53.1599,"RA_OF_ASC_NODE":192.3782,"ARG_OF_PERICENTER":83.1568,"MEAN_ANOMALY":352.0107,"EPHEMERIS_TYPE":0,"CLASSIFICATION_TYPE":"U","NORAD_CAT_ID":68089,"ELEMENT_SET_NO":999,"REV_AT_EPOCH":214,"BSTAR":-0.0021183974,"MEAN_MOTION_DOT":-0.01242211,"MEAN_MOTION_DDOT":0.00050277294},{"OBJECT_NAME":"STARLINK-36320","OBJECT_ID":"2026-042X","EPOCH":"2026-03-10T06:00:02.000160","MEAN_MOTION":16.02187577,"ECCENTRICITY":6.288e-5,"INCLINATION":53.16,"RA_OF_ASC_NODE":192.3712,"ARG_OF_PERICENTER":85.2128,"MEAN_ANOMALY":353.2775,"EPHEMERIS_TYPE":0,"CLASSIFICATION_TYPE":"U","NORAD_CAT_ID":68090,"ELEMENT_SET_NO":999,"REV_AT_EPOCH":213,"BSTAR":-0.0020823097,"MEAN_MOTION_DOT":-0.01240202,"MEAN_MOTION_DDOT":0.00050277019},{"OBJECT_NAME":"STARLINK-36324","OBJECT_ID":"2026-042Y","EPOCH":"2026-03-10T06:00:02.000160","MEAN_MOTION":16.02066842,"ECCENTRICITY":6.097e-5,"INCLINATION":53.1597,"RA_OF_ASC_NODE":192.3742,"ARG_OF_PERICENTER":85.3904,"MEAN_ANOMALY":351.5578,"EPHEMERIS_TYPE":0,"CLASSIFICATION_TYPE":"U","NORAD_CAT_ID":68091,"ELEMENT_SET_NO":999,"REV_AT_EPOCH":213,"BSTAR":-0.0021092596,"MEAN_MOTION_DOT":-0.01247273,"MEAN_MOTION_DDOT":0.00050731914},{"OBJECT_NAME":"STARLINK-36896","OBJECT_ID":"2026-042Z","EPOCH":"2026-03-10T06:00:02.000160","MEAN_MOTION":16.022957,"ECCENTRICITY":7.256e-5,"INCLINATION":53.1596,"RA_OF_ASC_NODE":192.3681,"ARG_OF_PERICENTER":80.7366,"MEAN_ANOMALY":359.1641,"EPHEMERIS_TYPE":0,"CLASSIFICATION_TYPE":"U","NORAD_CAT_ID":68092,"ELEMENT_SET_NO":999,"REV_AT_EPOCH":214,"BSTAR":-0.002057573,"MEAN_MOTION_DOT":-0.01233395,"MEAN_MOTION_DDOT":0.00049835888},{"OBJECT_NAME":"STARLINK-36251","OBJECT_ID":"2026-042AA","EPOCH":"2026-03-10T06:00:02.000160","MEAN_MOTION":16.02530557,"ECCENTRICITY":6.516e-5,"INCLINATION":53.1596,"RA_OF_ASC_NODE":192.3618,"ARG_OF_PERICENTER":85.3359,"MEAN_ANOMALY":357.5601,"EPHEMERIS_TYPE":0,"CLASSIFICATION_TYPE":"U","NORAD_CAT_ID":68093,"ELEMENT_SET_NO":999,"REV_AT_EPOCH":213,"BSTAR":-0.0020270662,"MEAN_MOTION_DOT":-0.01232082,"MEAN_MOTION_DDOT":0.0004987003},{"OBJECT_NAME":"STARLINK-36787","OBJECT_ID":"2026-042AB","EPOCH":"2026-03-10T06:00:02.000160","MEAN_MOTION":16.02854374,"ECCENTRICITY":6.85e-5,"INCLINATION":53.1593,"RA_OF_ASC_NODE":192.35,"ARG_OF_PERICENTER":91.1507,"MEAN_ANOMALY":357.3022,"EPHEMERIS_TYPE":0,"CLASSIFICATION_TYPE":"U","NORAD_CAT_ID":68094,"ELEMENT_SET_NO":999,"REV_AT_EPOCH":213,"BSTAR":-0.0020145381,"MEAN_MOTION_DOT":-0.01247989,"MEAN_MOTION_DDOT":0.0005123419},{"OBJECT_NAME":"STARLINK-36790","OBJECT_ID":"2026-042AC","EPOCH":"2026-03-10T06:00:02.000160","MEAN_MOTION":16.0240321,"ECCENTRICITY":6.866e-5,"INCLINATION":53.1597,"RA_OF_ASC_NODE":192.3652,"ARG_OF_PERICENTER":89.7814,"MEAN_ANOMALY":351.5267,"EPHEMERIS_TYPE":0,"CLASSIFICATION_TYPE":"U","NORAD_CAT_ID":68095,"ELEMENT_SET_NO":999,"REV_AT_EPOCH":213,"BSTAR":-0.0020501812,"MEAN_MOTION_DOT":-0.01236736,"MEAN_MOTION_DDOT":0.00050141992},{"OBJECT_NAME":"STARLINK-36328","OBJECT_ID":"2026-042AD","EPOCH":"2026-03-10T06:00:02.000160","MEAN_MOTION":16.02998794,"ECCENTRICITY":6.935e-5,"INCLINATION":53.1598,"RA_OF_ASC_NODE":192.3462,"ARG_OF_PERICENTER":79.3171,"MEAN_ANOMALY":10.9266,"EPHEMERIS_TYPE":0,"CLASSIFICATION_TYPE":"U","NORAD_CAT_ID":68096,"ELEMENT_SET_NO":999,"REV_AT_EPOCH":213,"BSTAR":-0.0019899595,"MEAN_MOTION_DOT":-0.01243449,"MEAN_MOTION_DDOT":0.00050978135},{"OBJECT_NAME":"STARLINK-36853","OBJECT_ID":"2026-042AE","EPOCH":"2026-03-10T06:00:02.000160","MEAN_MOTION":16.02738835,"ECCENTRICITY":6.684e-5,"INCLINATION":53.1596,"RA_OF_ASC_NODE":192.3534,"ARG_OF_PERICENTER":87.2378,"MEAN_ANOMALY":359.5565,"EPHEMERIS_TYPE":0,"CLASSIFICATION_TYPE":"U","NORAD_CAT_ID":68097,"ELEMENT_SET_NO":999,"REV_AT_EPOCH":214,"BSTAR":-0.002025704,"MEAN_MOTION_DOT":-0.01246351,"MEAN_MOTION_DDOT":0.00051045462}]
